NORAD_CAT_ID,OBJECT_NAME,OBJECT_TYPE,EPOCH,MEAN_MOTION,ECCENTRICITY,INCLINATION,RA_OF_ASC_NODE,ARG_OF_PERICENTER,MEAN_ANOMALY,BSTAR,MEAN_MOTION_DOT,MEAN_MOTION_DDOT,TLE_LINE0,TLE_LINE1,TLE_LINE2,SEMIMAJOR_AXIS,PERIOD,APOGEE,PERIGEE,DECAYED
49171.0,STARLINK-3107,PAYLOAD,2022-03-17 14:00:01,14.98312522,0.0003241,70.0034,358.2483,280.2393,204.8385,0.0042606,0.00051094,0.0,0 STARLINK-3107,1 49171U 21082AT  22076.58334491  .00051094  00000-0  42606-2 0  9998,2 49171  70.0034 358.2483 0003241 280.2393 204.8385 14.98312522  3581,6950.246999999999,96.108,574.365,569.859,0.0
49171.0,STARLINK-3107,PAYLOAD,2022-03-17 22:00:00,14.98370396,0.0003261,70.0036,357.408,280.4289,202.1282,-0.0031496,-0.00037513,0.0,0 STARLINK-3107,1 49171U 21082AT  22076.91667824 -.00037513  00000-0 -31496-2 0  9991,2 49171  70.0036 357.4080 0003261 280.4289 202.1282 14.98370396  3585,6950.068,96.104,574.1990000000002,569.6669999999998,0.0
49171.0,STARLINK-3107,PAYLOAD,2022-03-18 08:00:01,14.9836797,0.0003264,70.0032,356.3574,284.8703,284.5694,-0.0023386,-0.00027914,0.0,0 STARLINK-3107,1 49171U 21082AT  22077.33334491 -.00027914  00000-0 -23386-2 0  9992,2 49171  70.0032 356.3574 0003264 284.8703 284.5694 14.98367970 29582,6950.075,96.105,574.2090000000002,569.672,0.0
49171.0,STARLINK-3107,PAYLOAD,2022-03-18 14:00:01,14.98334669,0.0003194,70.0033,355.7272,279.706,197.8801,0.0014603,0.00017377,0.0,0 STARLINK-3107,1 49171U 21082AT  22077.58334491  .00017377  00000-0  14603-2 0  9991,2 49171  70.0033 355.7272 0003194 279.7060 197.8801 14.98334669  3602,6950.178000000001,96.107,574.263,569.8240000000002,0.0
49171.0,STARLINK-3107,PAYLOAD,2022-03-18 22:00:00,14.98353454,0.000314,70.0036,354.8869,280.4453,194.635,-0.00338,-0.00040217,0.0,0 STARLINK-3107,1 49171U 21082AT  22077.91667824 -.00040217  00000-0 -33800-2 0  9998,2 49171  70.0036 354.8869 0003140 280.4453 194.6350 14.98353454  3598,6950.12,96.105,574.168,569.803,0.0
49171.0,STARLINK-3107,PAYLOAD,2022-03-19 02:00:01,14.98321294,0.0003168,70.0034,354.4666,284.0255,9.8726,0.0015669,0.00018649,0.0,0 STARLINK-3107,1 49171U 21082AT  22078.08335648  .00018649  00000-0  15669-2 0  9998,2 49171  70.0034 354.4666 0003168 284.0255   9.8726 14.98321294 29697,6950.22,96.108,574.2869999999998,569.883,0.0
49171.0,STARLINK-3107,PAYLOAD,2022-03-19 14:00:01,14.98305185,0.0003159,70.0032,353.206,279.0596,191.0152,0.0052003,0.00062473,0.0,0 STARLINK-3107,1 49171U 21082AT  22078.58334491  .00062473  00000-0  52003-2 0  9995,2 49171  70.0032 353.2060 0003159 279.0596 191.0152 14.98305185  3580,6950.27,96.109,574.33,569.939,0.0
49171.0,STARLINK-3107,PAYLOAD,2022-03-19 22:00:01,14.98366389,0.0003179,70.0033,352.3657,280.2318,187.3801,-0.0034602,-0.00041177,0.0,0 STARLINK-3107,1 49171U 21082AT  22078.91668981 -.00041177  00000-0 -34602-2 0  9991,2 49171  70.0033 352.3657 0003179 280.2318 187.3801 14.98366389  3594,6950.08,96.105,574.155,569.736,0.0
49171.0,STARLINK-3107,PAYLOAD,2022-03-20 06:00:00,14.9835099,0.0003281,70.0029,351.5252,284.7649,180.2909,-0.0011569,-0.00013877,0.0,0 STARLINK-3107,1 49171U 21082AT  22079.25001157 -.00013877  00000-0 -11569-2 0  9998,2 49171  70.0029 351.5252 0003281 284.7649 180.2909 14.98350990 29872,6950.128000000002,96.106,574.273,569.7130000000002,0.0
49171.0,STARLINK-3107,PAYLOAD,2022-03-20 14:00:01,14.98294886,0.000329,70.0029,350.6849,278.4137,184.1616,0.0048158,0.00057793,0.0,0 STARLINK-3107,1 49171U 21082AT  22079.58334491  .00057793  00000-0  48158-2 0  9991,2 49171  70.0029 350.6849 0003290 278.4137 184.1616 14.98294886  3417,6950.301,96.109,574.453,569.88,0.0
49171.0,STARLINK-3107,PAYLOAD,2022-03-20 22:00:01,14.9835287,0.0003316,70.0031,349.8445,280.1056,179.9969,-0.0032166,-0.00038288,0.0,0 STARLINK-3107,1 49171U 21082AT  22079.91668981 -.00038288  00000-0 -32166-2 0  9994,2 49171  70.0031 349.8445 0003316 280.1056 179.9969 14.98352870  3467,6950.121999999999,96.106,574.2919999999998,569.683,0.0
49171.0,STARLINK-3107,PAYLOAD,2022-03-21 14:00:01,14.9831586,0.0003201,70.0026,348.1638,278.8983,176.1306,0.0024433,0.00029171,0.0,0 STARLINK-3107,1 49171U 21082AT  22080.58334491  .00029171  00000-0  24433-2 0  9992,2 49171  70.0026 348.1638 0003201 278.8983 176.1306 14.98315860 30072,6950.236999999999,96.108,574.326,569.877,0.0
49171.0,STARLINK-3107,PAYLOAD,2022-03-21 22:00:00,14.98337665,0.0003143999999999,70.0027,347.3234,281.3448,171.1613,-0.0036146,-0.00042968,0.0,0 STARLINK-3107,1 49171U 21082AT  22080.91667824 -.00042968  00000-0 -36146-2 0  9993,2 49171  70.0027 347.3234 0003144 281.3448 171.1613 14.98337665  3586,6950.169,96.107,574.219,569.849,0.0
49171.0,STARLINK-3107,PAYLOAD,2022-03-22 06:00:00,14.98318918,0.0003146,70.0022,346.483,286.064,163.9093,9.6495e-05,1.058e-05,0.0,0 STARLINK-3107,1 49171U 21082AT  22081.25001157  .00001058  00000-0  96495-4 0  9990,2 49171  70.0022 346.4830 0003146 286.0640 163.9093 14.98318918 30177,6950.227,96.108,574.279,569.906,0.0
49171.0,STARLINK-3107,PAYLOAD,2022-03-22 14:00:01,14.98285484,0.000304,70.0022,345.6426,279.4913,167.9649,0.0058347,0.00070146,0.0,0 STARLINK-3107,1 49171U 21082AT  22081.58334491  .00070146  00000-0  58347-2 0  9992,2 49171  70.0022 345.6426 0003040 279.4913 167.9649 14.98285484  3601,6950.331,96.11,574.308,570.0830000000002,0.0
49171.0,STARLINK-3107,PAYLOAD,2022-03-22 22:00:01,14.98341699,0.0003071,70.0024,344.8021,282.257,162.7199,-0.0025794,-0.00030745,0.0,0 STARLINK-3107,1 49171U 21082AT  22081.91668981 -.00030745  00000-0 -25794-2 0  9996,2 49171  70.0024 344.8021 0003071 282.2570 162.7199 14.98341699  3592,6950.156999999997,96.106,574.156,569.887,0.0
49171.0,STARLINK-3107,PAYLOAD,2022-03-23 14:00:01,14.98293552,0.0003291,70.0019,343.1211,280.7874,159.0404,0.0059453,0.00071507,0.0,0 STARLINK-3107,1 49171U 21082AT  22082.58334491  .00071507  00000-0  59453-2 0  9994,2 49171  70.0019 343.1211 0003291 280.7874 159.0404 14.98293552 30371,6950.306,96.109,574.4580000000002,569.883,0.0
49171.0,STARLINK-3107,PAYLOAD,2022-03-23 22:00:00,14.98348027,0.0003333,70.0023,342.2805,283.2624,154.0349,-0.0022975,-0.00027413,0.0,0 STARLINK-3107,1 49171U 21082AT  22082.91667824 -.00027413  00000-0 -22975-2 0  9998,2 49171  70.0023 342.2805 0003333 283.2624 154.0349 14.98348027  3598,6950.137,96.106,574.319,569.686,0.0
49171.0,STARLINK-3107,PAYLOAD,2022-03-24 06:00:00,14.98348219,0.0003373,70.0018,341.4399,286.5378,148.2495,-0.0010419,-0.00012509,0.0,0 STARLINK-3107,1 49171U 21082AT  22083.25001157 -.00012509  00000-0 -10419-2 0  9997,2 49171  70.0018 341.4399 0003373 286.5378 148.2495 14.98348219 30474,6950.137,96.106,574.346,569.6569999999998,0.0
49171.0,STARLINK-3107,PAYLOAD,2022-03-24 14:00:01,14.98306692,0.0003298,70.0019,340.5994,279.85,152.4459,0.0060615,0.00072947,0.0,0 STARLINK-3107,1 49171U 21082AT  22083.58334491  .00072947  00000-0  60615-2 0  9996,2 49171  70.0019 340.5994 0003298 279.8500 152.4459 14.98306692  3571,6950.265,96.108,574.422,569.8380000000002,0.0
49171.0,STARLINK-3107,PAYLOAD,2022-03-24 22:00:00,14.98361523,0.0003337,70.0023,339.7588,282.414,147.3704,-0.0020061,-0.00023968,0.0,0 STARLINK-3107,1 49171U 21082AT  22083.91667824 -.00023968  00000-0 -20061-2 0  9994,2 49171  70.0023 339.7588 0003337 282.4140 147.3704 14.98361523  3591,6950.095,96.105,574.28,569.641,0.0
49171.0,STARLINK-3107,PAYLOAD,2022-03-25 00:00:02,14.98344802,0.0003344,70.0021,339.5487,284.1276,235.1025,0.00059249,6.986e-05,0.0,0 STARLINK-3107,1 49171U 21082AT  22084.00002315  .00006986  00000-0  59249-3 0  9993,2 49171  70.0021 339.5487 0003344 284.1276 235.1025 14.98344802 30584,6950.147,96.106,574.336,569.688,0.0
49171.0,STARLINK-3107,PAYLOAD,2022-03-25 14:00:01,14.98294806,0.0003219,70.0021,338.0777,279.3396,145.4704,0.006228,0.00074951,0.0,0 STARLINK-3107,1 49171U 21082AT  22084.58334491  .00074951  00000-0  62280-2 0  9994,2 49171  70.0021 338.0777 0003219 279.3396 145.4704 14.98294806  3574,6950.302,96.109,574.404,569.929,0.0
49171.0,STARLINK-3107,PAYLOAD,2022-03-25 22:00:01,14.98346805,0.0003263,70.0024,337.2372,282.4832,139.8632,-0.0018871,-0.00022547,0.0,0 STARLINK-3107,1 49171U 21082AT  22084.91668981 -.00022547  00000-0 -18871-2 0  9998,2 49171  70.0024 337.2372 0003263 282.4832 139.8632 14.98346805 30729,6950.141,96.106,574.274,569.738,0.0
49171.0,STARLINK-3107,PAYLOAD,2022-03-26 14:00:01,14.98322401,0.00032,70.0023,335.5562,279.3954,137.8846,0.0030005,0.00035886,0.0,0 STARLINK-3107,1 49171U 21082AT  22085.58334491  .00035886  00000-0  30005-2 0  9999,2 49171  70.0023 335.5562 0003200 279.3954 137.8846 14.98322401 30823,6950.215999999999,96.107,574.305,569.857,0.0
49171.0,STARLINK-3107,PAYLOAD,2022-03-26 22:00:00,14.98327825,0.0003153,70.0025,334.7159,283.2379,131.5221,-0.0015837,-0.00018938,0.0,0 STARLINK-3107,1 49171U 21082AT  22085.91667824 -.00018938  00000-0 -15837-2 0  9992,2 49171  70.0025 334.7159 0003153 283.2379 131.5221 14.98327825 30878,6950.2,96.107,574.256,569.873,0.0
49171.0,STARLINK-3107,PAYLOAD,2022-03-27 14:00:01,14.9829908,0.0003071,70.0024,333.0352,279.7233,129.9975,0.006003,0.00072219,0.0,0 STARLINK-3107,1 49171U 21082AT  22086.58334491  .00072219  00000-0  60030-2 0  9992,2 49171  70.0024 333.0352 0003071 279.7233 129.9975 14.98299080 30971,6950.2890000000025,96.109,574.288,570.019,0.0
49171.0,STARLINK-3107,PAYLOAD,2022-03-27 22:00:01,14.98342003,0.0003129,70.0025,332.1948,284.0985,123.164,-0.00084383,-0.0001015,0.0,0 STARLINK-3107,1 49171U 21082AT  22086.91668981 -.00010150  00000-0 -84383-3 0  9999,2 49171  70.0025 332.1948 0003129 284.0985 123.1640 14.98342003  3553,6950.156,96.106,574.195,569.846,0.0
49171.0,STARLINK-3107,PAYLOAD,2022-03-28 06:00:00,14.98371686,0.0003132,70.0021,331.3545,286.5540000000001,118.1313,-0.0052068,-0.00061743,0.0,0 STARLINK-3107,1 49171U 21082AT  22087.25001157 -.00061743  00000-0 -52068-2 0  9991,2 49171  70.0021 331.3545 0003132 286.5540 118.1313 14.98371686 31079,6950.064,96.104,574.106,569.752,0.0
